NORAD_CAT_ID,OBJECT_NAME,OBJECT_TYPE,EPOCH,MEAN_MOTION,ECCENTRICITY,INCLINATION,RA_OF_ASC_NODE,ARG_OF_PERICENTER,MEAN_ANOMALY,BSTAR,MEAN_MOTION_DOT,MEAN_MOTION_DDOT,TLE_LINE0,TLE_LINE1,TLE_LINE2,SEMIMAJOR_AXIS,PERIOD,APOGEE,PERIGEE,DECAYED
55917.0,STARLINK-5855,PAYLOAD,2024-04-27 16:39:32,15.0934262,0.0003598,70.0007,216.2056,263.133,96.9425,0.0025229,0.00040475,0.0,0 STARLINK-5855,1 55917U 23037D   24118.69412211  .00040475  00000-0  25229-2 0  9996,2 55917  70.0007 216.2056 0003598 263.1330  96.9425 15.09342620 61619,6916.345,95.406,540.698,535.721,0.0
55917.0,STARLINK-5855,PAYLOAD,2024-04-28 13:20:08,15.0940648,0.000359,70.0004,213.9964,264.1622,95.9133,0.0020449,0.00032809,0.0,0 STARLINK-5855,1 55917U 23037D   24119.55565142  .00032809  00000-0  20449-2 0  9995,2 55917  70.0004 213.9964 0003590 264.1622  95.9133 15.09406480 61749,6916.149,95.402,540.497,535.532,0.0
55917.0,STARLINK-5855,PAYLOAD,2024-04-28 16:30:59,15.09414752,0.0003589,70.0003,213.6565,264.3045,95.7711,0.0019695,0.00031597,0.0,0 STARLINK-5855,1 55917U 23037D   24119.68819160  .00031597  00000-0  19695-2 0  9995,2 55917  70.0003 213.6565 0003589 264.3045  95.7711 15.09414752 62103,6916.124,95.401,540.471,535.507,0.0
55917.0,STARLINK-5855,PAYLOAD,2024-04-29 14:46:58,15.0946774,0.0003572,70.0,211.2771,264.8554,95.2203,0.0015732,0.00025233,0.0,0 STARLINK-5855,1 55917U 23037D   24120.61595144  .00025233  00000-0  15732-2 0  9991,2 55917  70.0000 211.2771 0003572 264.8554  95.2203 15.09467740 61908,6915.962,95.398,540.298,535.357,0.0
55917.0,STARLINK-5855,PAYLOAD,2024-04-29 16:22:23,15.09470954,0.000357,70.0,211.1071,265.1522,94.9235,0.0015603,0.00025026,0.0,0 STARLINK-5855,1 55917U 23037D   24120.68221901  .00025026  00000-0  15603-2 0  9992,2 55917  70.0000 211.1071 0003570 265.1522  94.9235 15.09470954 61910,6915.952,95.398,540.286,535.348,0.0
55917.0,STARLINK-5855,PAYLOAD,2024-04-30 05:05:47,15.09492249,0.0003532,69.9999,209.7473,265.568,94.5082,0.0013183,0.0002113,0.0,0 STARLINK-5855,1 55917U 23037D   24121.21235515  .00021130  00000-0  13183-2 0  9991,2 55917  69.9999 209.7473 0003532 265.5680  94.5082 15.09492249 62334,6915.887,95.396,540.195,535.31,0.0
55917.0,STARLINK-5855,PAYLOAD,2024-04-30 14:38:20,15.0950042,0.0003555,69.9998,208.7269,267.2612,92.8146,0.0012349,0.00019787,0.0,0 STARLINK-5855,1 55917U 23037D   24121.60995468  .00019787  00000-0  12349-2 0  9992,2 55917  69.9998 208.7269 0003555 267.2612  92.8146 15.09500420 62056,6915.862,95.396,540.186,535.269,0.0
55917.0,STARLINK-5855,PAYLOAD,2024-04-30 22:35:26,15.09516579,0.0003549,69.9997,207.877,266.8675,93.2084,0.0015146,0.00024318,0.0,0 STARLINK-5855,1 55917U 23037D   24121.94128344  .00024318  00000-0  15146-2 0  9994,2 55917  69.9997 207.8770 0003549 266.8675  93.2084 15.09516579 62103,6915.813,95.395,540.133,535.224,0.0
55917.0,STARLINK-5855,PAYLOAD,2024-05-02 12:45:31,15.09589701,0.0003594,69.9999,203.7967,268.4597,91.6156,0.0014302,0.00022999,0.0,0 STARLINK-5855,1 55917U 23037D   24123.53161344  .00022999  00000-0  14302-2 0  9994,2 55917  69.9999 203.7967 0003594 268.4597  91.6156 15.09589701 62681,6915.59,95.39,539.94,534.969,0.0
55917.0,STARLINK-5855,PAYLOAD,2024-05-02 14:20:56,15.09594225,0.0003572,69.9998,203.6266,268.2212,91.8544,0.0014873,0.00023928,0.0,0 STARLINK-5855,1 55917U 23037D   24123.59787531  .00023928  00000-0  14873-2 0  9998,2 55917  69.9998 203.6266 0003572 268.2212  91.8544 15.09594225 62353,6915.576,95.39,539.911,534.971,0.0
55917.0,STARLINK-5855,PAYLOAD,2024-05-03 12:36:45,15.09648235,0.0003588,70.0001,201.2461,268.6266,91.4488,0.0012856,0.0002069,0.0,0 STARLINK-5855,1 55917U 23037D   24124.52552296  .00020690  00000-0  12856-2 0  9992,2 55917  70.0001 201.2461 0003588 268.6266  91.4488 15.09648235 62839,6915.411,95.386,539.757,534.795,0.0
55917.0,STARLINK-5855,PAYLOAD,2024-05-03 14:12:10,15.09651,0.0003589,70.0001,201.076,268.8752,91.2001,0.0012545,0.00020187,0.0,0 STARLINK-5855,1 55917U 23037D   24124.59178261  .00020187  00000-0  12545-2 0  9991,2 55917  70.0001 201.0760 0003589 268.8752  91.2001 15.09651000 62509,6915.403,95.386,539.75,534.786,0.0
55917.0,STARLINK-5855,PAYLOAD,2024-05-03 22:09:13,15.09665906,0.0003581,70.0001,200.2259,267.9803,92.0952,0.0011675,0.00018784,0.0,0 STARLINK-5855,1 55917U 23037D   24124.92307797  .00018784  00000-0  11675-2 0  9999,2 55917  70.0001 200.2259 0003581 267.9803  92.0952 15.09665906 62551,6915.357,95.385,539.698,534.746,0.0
55917.0,STARLINK-5855,PAYLOAD,2024-05-04 14:03:21,15.0968966,0.0003619,70.0002,198.5254,269.1264,90.9486,0.0011467,0.00018459,0.0,0 STARLINK-5855,1 55917U 23037D   24125.58566070  .00018459  00000-0  11467-2 0  9991,2 55917  70.0002 198.5254 0003619 269.1264  90.9486 15.09689660 62993,6915.285,95.384,539.652,534.647,0.0
55917.0,STARLINK-5855,PAYLOAD,2024-05-05 13:54:30,15.09725872,0.0003658,70.0002,195.9751,267.8801,92.1945,0.0011788,0.00018999,0.0,0 STARLINK-5855,1 55917U 23037D   24126.57951640  .00018999  00000-0  11788-2 0  9997,2 55917  70.0002 195.9751 0003658 267.8801  92.1945 15.09725872 62801,6915.174,95.382,539.569,534.509,0.0
55917.0,STARLINK-5855,PAYLOAD,2024-05-05 21:51:32,15.09739139,0.0003662,70.0003,195.1248,267.7076,92.367,0.0012841,0.00020718,0.0,0 STARLINK-5855,1 55917U 23037D   24126.91079647  .00020718  00000-0  12841-2 0  9996,2 55917  70.0003 195.1248 0003662 267.7076  92.3670 15.09739139 62856,6915.133,95.381,539.531,534.466,0.0
55917.0,STARLINK-5855,PAYLOAD,2024-05-06 04:13:10,15.09756715,0.000367,70.0002,194.4447,267.8043,92.2702,0.001607,0.00025985,0.0,0 STARLINK-5855,1 55917U 23037D   24127.17581742  .00025985  00000-0  16070-2 0  9998,2 55917  70.0002 194.4447 0003670 267.8043  92.2702 15.09756715 63239,6915.08,95.38,539.483,534.407,0.0
55917.0,STARLINK-5855,PAYLOAD,2024-05-06 13:45:37,15.09770325,0.0003703,70.0,193.4243,267.3737,92.7004,0.0014557,0.0002353,0.0,0 STARLINK-5855,1 55917U 23037D   24127.57334617  .00023530  00000-0  14557-2 0  9991,2 55917  70.0000 193.4243 0003703 267.3737  92.7004 15.09770325 62953,6915.038,95.379,539.464,534.343,0.0
55917.0,STARLINK-5855,PAYLOAD,2024-05-07 13:36:40,15.0983889,0.0003876,69.9995,190.873,267.7893,92.2828,0.0015835,0.00025661,0.0,0 STARLINK-5855,1 55917U 23037D   24128.56713178  .00025661  00000-0  15835-2 0  9991,2 55917  69.9995 190.8730 0003876 267.7893  92.2828 15.09838890 63449,6914.829,95.374,539.374,534.014,0.0
55917.0,STARLINK-5855,PAYLOAD,2024-05-08 13:27:40,15.09880485,0.0004018,69.9989,188.3221,268.1977,91.8728,0.0017381,0.00028219,0.0,0 STARLINK-5855,1 55917U 23037D   24129.56088940  .00028219  00000-0  17381-2 0  9994,2 55917  69.9989 188.3221 0004018 268.1977  91.8728 15.09880485 63593,6914.702,95.372,539.345,533.789,0.0
55917.0,STARLINK-5855,PAYLOAD,2024-05-08 21:24:40,15.09893745,0.0003992,69.9988,187.4716,266.8614,93.2094,0.0016048,0.00026049,0.0,0 STARLINK-5855,1 55917U 23037D   24129.89213565  .00026049  00000-0  16048-2 0  9991,2 55917  69.9988 187.4716 0003992 266.8614  93.2094 15.09893745 63308,6914.661,95.371,539.287,533.766,0.0
55917.0,STARLINK-5855,PAYLOAD,2024-05-09 13:18:39,15.09918962,0.0003971,69.9989,185.7714,266.1738,93.8973,0.0013726,0.00022268,0.0,0 STARLINK-5855,1 55917U 23037D   24130.55462031  .00022268  00000-0  13726-2 0  9999,2 55917  69.9989 185.7714 0003971 266.1738  93.8973 15.09918962 63744,6914.584,95.369,539.195,533.704,0.0
55917.0,STARLINK-5855,PAYLOAD,2024-05-10 13:09:35,15.09961749,0.0004076,69.9987,183.2198,266.7131,93.3568,0.0015918,0.00025885,0.0,0 STARLINK-5855,1 55917U 23037D   24131.54832350  .00025885  00000-0  15918-2 0  9997,2 55917  69.9987 183.2198 0004076 266.7131  93.3568 15.09961749 63556,6914.454,95.367,539.137,533.5,0.0
55917.0,STARLINK-5855,PAYLOAD,2024-05-11 05:03:30,15.10026464,0.0004096,69.9987,181.5189,265.8147,94.2549,0.0023846,0.00038969,0.0,0 STARLINK-5855,1 55917U 23037D   24132.21076552  .00038969  00000-0  23846-2 0  9992,2 55917  69.9987 181.5189 0004096 265.8147  94.2549 15.10026464 63991,6914.256,95.363,538.953,533.289,0.0
55917.0,STARLINK-5855,PAYLOAD,2024-05-11 13:00:25,15.10114486,0.0004159,69.9984,180.6688,266.5107,93.5583,0.0053217,0.00087905,0.0,0 STARLINK-5855,1 55917U 23037D   24132.54196728  .00087905  00000-0  53217-2 0  9995,2 55917  69.9984 180.6688 0004159 266.5107  93.5583 15.10114486 64045,6913.988,95.357,538.728,532.977,0.0
55917.0,STARLINK-5855,PAYLOAD,2024-05-11 20:57:20,15.10164363,0.0004213,69.9984,179.8176,266.5735,93.4948,0.0042535,0.00070162,0.0,0 STARLINK-5855,1 55917U 23037D   24132.87315565  .00070162  00000-0  42535-2 0  9991,2 55917  69.9984 179.8176 0004213 266.5735  93.4948 15.10164363 63755,6913.835,95.354,538.613,532.788,0.0
55917.0,STARLINK-5855,PAYLOAD,2024-05-12 04:54:14,15.10186741,0.0004252,69.9981,178.9672,268.2727,91.7951,0.0016611,0.00027189,0.0,0 STARLINK-5855,1 55917U 23037D   24133.20433740  .00027189  00000-0  16611-2 0  9992,2 55917  69.9981 178.9672 0004252 268.2727  91.7951 15.10186741 64149,6913.767,95.352,538.572,532.692,0.0
55917.0,STARLINK-5855,PAYLOAD,2024-05-12 12:51:08,15.10198084,0.0004123,69.9987,178.117,267.5909,92.4784,0.0014197,0.00023217,0.0,0 STARLINK-5855,1 55917U 23037D   24133.53551652  .00023217  00000-0  14197-2 0  9996,2 55917  69.9987 178.1170 0004123 267.5909  92.4784 15.10198084 63853,6913.732,95.352,538.448,532.747,0.0
55917.0,STARLINK-5855,PAYLOAD,2024-05-13 04:44:55,15.10220638,0.0004125,69.999,176.4165,259.4677,100.6024,0.00096601,0.00015758,0.0,0 STARLINK-5855,1 55917U 23037D   24134.19786532  .00015758  00000-0  96601-3 0  9998,2 55917  69.9990 176.4165 0004125 259.4677 100.6024 15.10220638 64295,6913.664,95.35,538.38,532.677,0.0
55917.0,STARLINK-5855,PAYLOAD,2024-05-13 11:06:26,15.10220655,0.0004197,69.9993,175.7355,265.6379,94.4306,0.00075585,0.00012301,0.0,0 STARLINK-5855,1 55917U 23037D   24134.46280494  .00012301  00000-0  75585-3 0  9993,2 55917  69.9993 175.7355 0004197 265.6379  94.4306 15.10220655 63996,6913.663,95.35,538.43,532.627,0.0
